JASON-3                 
1 41240U 16002A   21344.96529673 -.00000050  00000-0  49296-4 0  9991
2 41240  66.0415 320.3946 0008018 270.7159  89.2938 12.80929326275779
